0 COSMOS 2131
1 21106U 91009G   13282.16600653 -.00000034  00000-0 -10403-3 0   599
2 21106 074.0303 172.0718 0051539 049.6015 103.3611 12.58888057 41319
0 COSMOS 2131
1 21106U 91009G   13284.44855479  .00000004  00000-0  11469-3 0   600
2 21106 074.0300 168.9883 0051592 046.1009 007.8765 12.58887736 41600
0 COSMOS 2131
1 21106U 91009G   13286.76543314  .00000022  00000-0  22400-3 0   617
2 21106 074.0295 165.8585 0051638 042.5363 067.9843 12.58887698 41894
0 COSMOS 2131
1 21106U 91009G   13289.08265199  .00000011  00000-0  16077-3 0   629
2 21106 074.0289 162.7282 0051679 038.9707 129.6352 12.58887933 42189
0 COSMOS 2131
1 21106U 91009G   13291.13730902 -.00000016  00000-0  24902-5 0   632
2 21106 074.0285 159.9524 0051709 035.8142 081.3496 12.58888275 42447
0 COSMOS 2131
1 21106U 91009G   13293.43011642 -.00000027  00000-0 -64137-4 0   647
2 21106 074.0283 156.8547 0051746 032.3070 032.3511 12.58888396 42739
0 COSMOS 2131
1 21106U 91009G   13295.81735302 -.00000022  00000-0 -32125-4 0   655
2 21106 074.0281 153.6294 0051781 028.6454 051.3169 12.58888213 43036
